[{"OBJECT_NAME":"STARLINK-33576","OBJECT_ID":"2025-015T","EPOCH":"2026-03-09T23:25:22.288224","MEAN_MOTION":15.30212597,"ECCENTRICITY":0.0001302,"INCLINATION":53.1596,"RA_OF_ASC_NODE":321.2217,"ARG_OF_PERICENTER":86.0842,"MEAN_ANOMALY":274.0308,"EPHEMERIS_TYPE":0,"CLASSIFICATION_TYPE":"U","NORAD_CAT_ID":62775,"ELEMENT_SET_NO":999,"REV_AT_EPOCH":6446,"BSTAR":0.0011100189,"MEAN_MOTION_DOT":0.00032674,"MEAN_MOTION_DDOT":0},{"OBJECT_NAME":"TEVEL2-1","OBJECT_ID":"2025-052H","EPOCH":"2026-03-09T15:32:51.927072","MEAN_MOTION":15.30341923,"ECCENTRICITY":0.0004767,"INCLINATION":97.3991,"RA_OF_ASC_NODE":324.7682,"ARG_OF_PERICENTER":104.8919,"MEAN_ANOMALY":255.2849,"EPHEMERIS_TYPE":0,"CLASSIFICATION_TYPE":"U","NORAD_CAT_ID":63217,"ELEMENT_SET_NO":999,"REV_AT_EPOCH":5485,"BSTAR":0.000706,"MEAN_MOTION_DOT":0.00020683,"MEAN_MOTION_DDOT":0}]
